start=new Date('2022-11-25T00:00:00.000Z').valueOf();
sats=[{"DECAY_DATE":null,"GP_ID":"218640872","CENTER_NAME":"EARTH","BSTAR":"0.00001509100000","RCS_SIZE":"LARGE","RA_OF_ASC_NODE":"48.9338","EPOCH":"2022-11-24T12:14:11.229216","OBJECT_NAME":"STARLINK-1397","COUNTRY_CODE":"US","EPHEMERIS_TYPE":"0","REF_FRAME":"TEME","MEAN_MOTION_DDOT":"0.0000000000000","ECCENTRICITY":"0.00014460","NORAD_CAT_ID":"45682","PERIOD":"95.592","MEAN_MOTION":"15.06407169","LAUNCH_DATE":"2020-06-04","OBJECT_ID":"2020-035AB","OBJECT_TYPE":"PAYLOAD","FILE":"3668909","MEAN_MOTION_DOT":"-0.00000057","REV_AT_EPOCH":"13741","CLASSIFICATION_TYPE":"U","SEMIMAJOR_AXIS":"6925.327","ELEMENT_SET_NO":"999","TLE_LINE1":"1 45682U 20035AB  22328.50985219 -.00000057  00000-0  15091-4 0  9994","TIME_SYSTEM":"UTC","MEAN_ELEMENT_THEORY":"SGP4","ARG_OF_PERICENTER":"82.4969","MEAN_ANOMALY":"277.6184","APOAPSIS":"548.193","SITE":"AFETR","INCLINATION":"53.0569","TLE_LINE2":"2 45682  53.0569  48.9338 0001446  82.4969 277.6184 15.06407169137413","PERIAPSIS":"546.190"},{"PERIAPSIS":"546.477","INCLINATION":"53.0573","SITE":"AFETR","APOAPSIS":"547.963","TLE_LINE2":"2 45683  53.0573  48.9983 0001073  64.7142 295.3958 15.06397887137823","MEAN_ELEMENT_THEORY":"SGP4","TIME_SYSTEM":"UTC","MEAN_ANOMALY":"295.3958","ARG_OF_PERICENTER":"64.7142","TLE_LINE1":"1 45683U 20035AC  22328.49142852  .00001583  00000-0  12513-3 0  9990","ELEMENT_SET_NO":"999","SEMIMAJOR_AXIS":"6925.355","CLASSIFICATION_TYPE":"U","REV_AT_EPOCH":"13782","MEAN_MOTION_DOT":"0.00001583","FILE":"3669022","OBJECT_ID":"2020-035AC","LAUNCH_DATE":"2020-06-04","MEAN_MOTION":"15.06397887","PERIOD":"95.592","OBJECT_TYPE":"PAYLOAD","NORAD_CAT_ID":"45683","MEAN_MOTION_DDOT":"0.0000000000000","REF_FRAME":"TEME","ECCENTRICITY":"0.00010730","OBJECT_NAME":"STARLINK-1399","EPHEMERIS_TYPE":"0","COUNTRY_CODE":"US","EPOCH":"2022-11-24T11:47:39.424128","BSTAR":"0.00012513000000","RCS_SIZE":"LARGE","CENTER_NAME":"EARTH","RA_OF_ASC_NODE":"48.9983","DECAY_DATE":null,"GP_ID":"218663799"},{"PERIAPSIS":"546.165","SITE":"AFETR","APOAPSIS":"548.265","INCLINATION":"53.0570","TLE_LINE2":"2 45684  53.0570  48.5174 0001516  61.1830 298.9311 15.06399508137842","TIME_SYSTEM":"UTC","MEAN_ELEMENT_THEORY":"SGP4","ARG_OF_PERICENTER":"61.1830","MEAN_ANOMALY":"298.9311","ELEMENT_SET_NO":"999","TLE_LINE1":"1 45684U 20035AD  22328.60200211  .00000904  00000-0  79568-4 0  9998","CLASSIFICATION_TYPE":"U","REV_AT_EPOCH":"13784","SEMIMAJOR_AXIS":"6925.350","MEAN_MOTION_DOT":"0.00000904","FILE":"3669335","MEAN_MOTION":"15.06399508","PERIOD":"95.592","OBJECT_ID":"2020-035AD","LAUNCH_DATE":"2020-06-04","OBJECT_TYPE":"PAYLOAD","NORAD_CAT_ID":"45684","MEAN_MOTION_DDOT":"0.0000000000000","REF_FRAME":"TEME","ECCENTRICITY":"0.00015160","OBJECT_NAME":"STARLINK-1401","EPHEMERIS_TYPE":"0","COUNTRY_CODE":"US","EPOCH":"2022-11-24T14:26:52.982304","CENTER_NAME":"EARTH","BSTAR":"0.00007956800000","RCS_SIZE":"LARGE","RA_OF_ASC_NODE":"48.5174","DECAY_DATE":null,"GP_ID":"218721118"},{"ECCENTRICITY":"0.00013260","MEAN_MOTION_DDOT":"0.0000000000000","REF_FRAME":"TEME","EPHEMERIS_TYPE":"0","COUNTRY_CODE":"US","OBJECT_NAME":"STARLINK-1402","NORAD_CAT_ID":"45685","GP_ID":"218640896","DECAY_DATE":null,"EPOCH":"2022-11-24T11:10:30.396576","RA_OF_ASC_NODE":"49.1312","CENTER_NAME":"EARTH","BSTAR":"0.00002695600000","RCS_SIZE":"LARGE","ARG_OF_PERICENTER":"67.7505","MEAN_ANOMALY":"292.3625","TIME_SYSTEM":"UTC","MEAN_ELEMENT_THEORY":"SGP4","ELEMENT_SET_NO":"999","TLE_LINE1":"1 45685U 20035AE  22328.46562959  .00000120  00000-0  26956-4 0  9996","PERIAPSIS":"546.337","TLE_LINE2":"2 45685  53.0563  49.1312 0001326  67.7505 292.3625 15.06386421137415","SITE":"AFETR","APOAPSIS":"548.173","INCLINATION":"53.0563","FILE":"3668911","OBJECT_TYPE":"PAYLOAD","MEAN_MOTION":"15.06386421","PERIOD":"95.593","OBJECT_ID":"2020-035AE","LAUNCH_DATE":"2020-06-04","CLASSIFICATION_TYPE":"U","REV_AT_EPOCH":"13741","SEMIMAJOR_AXIS":"6925.390","MEAN_MOTION_DOT":"0.00000120"},{"EPOCH":"2022-11-24T14:10:57.761184","RA_OF_ASC_NODE":"48.5574","CENTER_NAME":"EARTH","RCS_SIZE":"LARGE","BSTAR":"0.00003705300000","GP_ID":"218720623","DECAY_DATE":null,"NORAD_CAT_ID":"45686","ECCENTRICITY":"0.00012250","REF_FRAME":"TEME","MEAN_MOTION_DDOT":"0.0000000000000","EPHEMERIS_TYPE":"0","COUNTRY_CODE":"US","OBJECT_NAME":"STARLINK-1404","REV_AT_EPOCH":"13784","CLASSIFICATION_TYPE":"U","SEMIMAJOR_AXIS":"6925.357","MEAN_MOTION_DOT":"0.00000271","FILE":"3669335","OBJECT_TYPE":"PAYLOAD","PERIOD":"95.592","MEAN_MOTION":"15.06397121","OBJECT_ID":"2020-035AF","LAUNCH_DATE":"2020-06-04","PERIAPSIS":"546.374","TLE_LINE2":"2 45686  53.0566  48.5574 0001225  90.0646 270.0484 15.06397121137847","SITE":"AFETR","APOAPSIS":"548.071","INCLINATION":"53.0566","ARG_OF_PERICENTER":"90.0646","MEAN_ANOMALY":"270.0484","TIME_SYSTEM":"UTC","MEAN_ELEMENT_THEORY":"SGP4","ELEMENT_SET_NO":"999","TLE_LINE1":"1 45686U 20035AF  22328.59094631  .00000271  00000-0  37053-4 0  9995"},{"FILE":"3669335","OBJECT_TYPE":"PAYLOAD","LAUNCH_DATE":"2020-06-04","OBJECT_ID":"2020-035AH","PERIOD":"95.354","MEAN_MOTION":"15.10155842","SEMIMAJOR_AXIS":"6913.861","REV_AT_EPOCH":"13784","CLASSIFICATION_TYPE":"U","MEAN_MOTION_DOT":"0.00018356","MEAN_ANOMALY":"339.6609","ARG_OF_PERICENTER":"20.4423","MEAN_ELEMENT_THEORY":"SGP4","TIME_SYSTEM":"UTC","TLE_LINE1":"1 45688U 20035AH  22328.51780036  .00018356  00000-0  11271-2 0  9995","ELEMENT_SET_NO":"999","PERIAPSIS":"535.013","TLE_LINE2":"2 45688  53.0579  47.5221 0001031  20.4423 339.6609 15.10155842137844","INCLINATION":"53.0579","SITE":"AFETR","APOAPSIS":"536.439","GP_ID":"218720875","DECAY_DATE":null,"EPOCH":"2022-11-24T12:25:37.951104","RA_OF_ASC_NODE":"47.5221","BSTAR":"0.00112710000000","RCS_SIZE":"LARGE","CENTER_NAME":"EARTH","ECCENTRICITY":"0.00010310","REF_FRAME":"TEME","MEAN_MOTION_DDOT":"0.0000000000000","EPHEMERIS_TYPE":"0","COUNTRY_CODE":"US","OBJECT_NAME":"STARLINK-1408","NORAD_CAT_ID":"45688"},{"MEAN_ELEMENT_THEORY":"SGP4","TIME_SYSTEM":"UTC","MEAN_ANOMALY":"250.5599","ARG_OF_PERICENTER":"109.5561","TLE_LINE1":"1 45689U 20035AJ  22328.60937834 -.00002803  00000-0 -16932-3 0  9998","ELEMENT_SET_NO":"999","PERIAPSIS":"546.098","INCLINATION":"53.0557","SITE":"AFETR","APOAPSIS":"548.293","TLE_LINE2":"2 45689  53.0557  48.4814 0001585 109.5561 250.5599 15.06405959137431","FILE":"3669129","OBJECT_ID":"2020-035AJ","LAUNCH_DATE":"2020-06-04","PERIOD":"95.592","MEAN_MOTION":"15.06405959","OBJECT_TYPE":"PAYLOAD","SEMIMAJOR_AXIS":"6925.330","REV_AT_EPOCH":"13743","CLASSIFICATION_TYPE":"U","MEAN_MOTION_DOT":"-0.00002803","MEAN_MOTION_DDOT":"0.0000000000000","REF_FRAME":"TEME","ECCENTRICITY":"0.00015850","OBJECT_NAME":"STARLINK-1413","EPHEMERIS_TYPE":"0","COUNTRY_CODE":"US","NORAD_CAT_ID":"45689","DECAY_DATE":null,"GP_ID":"218698567","EPOCH":"2022-11-24T14:37:30.288576","RCS_SIZE":"LARGE","BSTAR":"-0.00016932000000","CENTER_NAME":"EARTH","RA_OF_ASC_NODE":"48.4814"},{"MEAN_MOTION_DOT":"0.00000177","CLASSIFICATION_TYPE":"U","REV_AT_EPOCH":"13737","SEMIMAJOR_AXIS":"6927.835","OBJECT_TYPE":"PAYLOAD","PERIOD":"95.644","MEAN_MOTION":"15.05589184","OBJECT_ID":"2020-035AK","LAUNCH_DATE":"2020-06-04","FILE":"3669137","TLE_LINE2":"2 45690  53.0001  48.4979 0001772  66.0004 294.1169 15.05589184137378","APOAPSIS":"550.927","SITE":"AFETR","INCLINATION":"53.0001","PERIAPSIS":"548.472","ELEMENT_SET_NO":"999","TLE_LINE1":"1 45690U 20035AK  22328.60780696  .00000177  00000-0  31348-4 0  9991","ARG_OF_PERICENTER":"66.0004","MEAN_ANOMALY":"294.1169","TIME_SYSTEM":"UTC","MEAN_ELEMENT_THEORY":"SGP4","RA_OF_ASC_NODE":"48.4979","CENTER_NAME":"EARTH","RCS_SIZE":"LARGE","BSTAR":"0.00003134800000","EPOCH":"2022-11-24T14:35:14.521344","GP_ID":"218698585","DECAY_DATE":null,"NORAD_CAT_ID":"45690","EPHEMERIS_TYPE":"0","COUNTRY_CODE":"US","OBJECT_NAME":"STARLINK-1414","ECCENTRICITY":"0.00017720","REF_FRAME":"TEME","MEAN_MOTION_DDOT":"0.0000000000000"},{"DECAY_DATE":null,"GP_ID":"218720125","CENTER_NAME":"EARTH","RCS_SIZE":"LARGE","BSTAR":"-0.00000216120000","RA_OF_ASC_NODE":"48.8428","EPOCH":"2022-11-24T12:40:43.980384","OBJECT_NAME":"STARLINK-1415","EPHEMERIS_TYPE":"0","COUNTRY_CODE":"US","REF_FRAME":"TEME","MEAN_MOTION_DDOT":"0.0000000000000","ECCENTRICITY":"0.00014860","NORAD_CAT_ID":"45691","MEAN_MOTION":"15.06400189","PERIOD":"95.592","LAUNCH_DATE":"2020-06-04","OBJECT_ID":"2020-035AL","OBJECT_TYPE":"PAYLOAD","FILE":"3669335","MEAN_MOTION_DOT":"-0.00000314","REV_AT_EPOCH":"13783","CLASSIFICATION_TYPE":"U","SEMIMAJOR_AXIS":"6925.348","ELEMENT_SET_NO":"999","TLE_LINE1":"1 45691U 20035AL  22328.52828681 -.00000314  00000-0 -21612-5 0  9999","TIME_SYSTEM":"UTC","MEAN_ELEMENT_THEORY":"SGP4","ARG_OF_PERICENTER":"69.9567","MEAN_ANOMALY":"290.1582","SITE":"AFETR","APOAPSIS":"548.242","INCLINATION":"53.0579","TLE_LINE2":"2 45691  53.0579  48.8428 0001486  69.9567 290.1582 15.06400189137834","PERIAPSIS":"546.184"},{"EPOCH":"2022-11-24T15:41:12.177888","RA_OF_ASC_NODE":"48.2706","CENTER_NAME":"EARTH","RCS_SIZE":"LARGE","BSTAR":"-0.00000553470000","GP_ID":"218721374","DECAY_DATE":null,"NORAD_CAT_ID":"45692","ECCENTRICITY":"0.00013180","MEAN_MOTION_DDOT":"0.0000000000000","REF_FRAME":"TEME","COUNTRY_CODE":"US","EPHEMERIS_TYPE":"0","OBJECT_NAME":"STARLINK-1416","CLASSIFICATION_TYPE":"U","REV_AT_EPOCH":"13784","SEMIMAJOR_AXIS":"6925.363","MEAN_MOTION_DOT":"-0.00000364","FILE":"3669335","OBJECT_TYPE":"PAYLOAD","PERIOD":"95.592","MEAN_MOTION":"15.06395418","OBJECT_ID":"2020-035AM","LAUNCH_DATE":"2020-06-04","PERIAPSIS":"546.315","TLE_LINE2":"2 45692  53.0559  48.2706 0001318  71.9144 288.1989 15.06395418137841","APOAPSIS":"548.140","SITE":"AFETR","INCLINATION":"53.0559","ARG_OF_PERICENTER":"71.9144","MEAN_ANOMALY":"288.1989","TIME_SYSTEM":"UTC","MEAN_ELEMENT_THEORY":"SGP4","ELEMENT_SET_NO":"999","TLE_LINE1":"1 45692U 20035AM  22328.65361317 -.00000364  00000-0 -55347-5 0  9999"}];
